format  = 'OEF2.0'       ! file format
rectype = 'ML'           ! record type (1L/ML)
refsys  = ECLM J2000     ! default reference system
END_OF_HEADER
433
! Equinoctial elements: a, e*sin(LP), e*cos(LP), tan(i/2)*sin(LN), tan(i/2)*cos(LN), mean long.
 EQU   1.4580835432521406E+00   0.186731548622843  -0.121477866041295   -0.078216343748682    0.053535288884293  356.226834917799
 MJD     53787.596517922 TDT
 MAG  10.853  0.460
! Non-gravitational parameters: model used, number of model parameters, dimension
 LSP   0  0    6
! RMS    1.64591E-10   1.26495E-08   1.57424E-08   1.77656E-08   1.76889E-08   1.90187E-06
! EIG   1.47043E-10   3.80508E-09   9.84494E-09   1.47518E-08   2.05006E-08   1.90194E-06
! WEA   0.00000   0.00373   0.00796  -0.00030  -0.00143  -0.99996
 COV   2.709005982472826E-20  2.614798138185264E-19  3.520787248325734E-19
 COV  -6.180094411929307E-20 -2.297535117968991E-19 -1.714008716787934E-17
 COV   1.600097204963565E-16  1.011550241884446E-16 -1.040124963263759E-17
 COV   3.222598305797540E-17 -1.350232049194842E-14  2.478222892849441E-16
 COV   5.827025090471893E-18 -2.165326192138644E-17 -2.877703814285162E-14
 COV   3.156165844367133E-16 -1.029089123797051E-16  1.099278338989066E-15
 COV   3.128963806101751E-16  5.164493021228795E-15  3.617099428099010E-12
 NOR   4.623444572588979E+19 -1.933598563967977E+17 -8.130608955784714E+17
 NOR   9.050860691630552E+16  1.463318211508055E+17 -7.207723499009023E+15
 NOR   1.147920461408069E+16  1.032465026564894E+16 -1.335983804344115E+15
 NOR  -3.178690732280249E+15  1.290203664130051E+14  8.117372696976077E+16
 NOR  -6.947887441553072E+15 -9.826295991891956E+15  6.966343582107379E+14
 NOR   4.199603281113704E+15  2.164116603109211E+15 -6.420068915256057E+13
 NOR   5.272376687255138E+15 -9.753433145203158E+13  6.425009068483109E+12
